start=new Date('2023-04-21T00:00:00.000Z').valueOf();
sats=[{"MEAN_MOTION":"15.02535256","OBJECT_ID":"2022-177AW","OBJECT_TYPE":"PAYLOAD","FILE":"3891109","GP_ID":"230464693","MEAN_MOTION_DDOT":"0.0000000000000","TLE_LINE1":"1 54864U 22177AW  23110.65577881 -.00000939  00000-0 -54455-4 0  9990","ARG_OF_PERICENTER":"268.8618","RA_OF_ASC_NODE":"87.4322","REV_AT_EPOCH":"1855","TIME_SYSTEM":"UTC","COUNTRY_CODE":"US","EPOCH":"2023-04-20T15:44:19.289184","APOAPSIS":"560.065","OBJECT_NAME":"STARLINK-5359","RCS_SIZE":"LARGE","SITE":"AFETR","CENTER_NAME":"EARTH","SEMIMAJOR_AXIS":"6937.219","PERIOD":"95.838","LAUNCH_DATE":"2022-12-28","ECCENTRICITY":"0.00014150","REF_FRAME":"TEME","PERIAPSIS":"558.102","TLE_LINE2":"2 54864  43.0041  87.4322 0001415 268.8618  91.2062 15.02535256 18550","ELEMENT_SET_NO":"999","INCLINATION":"43.0041","MEAN_ANOMALY":"91.2062","NORAD_CAT_ID":"54864","CLASSIFICATION_TYPE":"U","EPHEMERIS_TYPE":"0","MEAN_MOTION_DOT":"-0.00000939","DECAY_DATE":null,"BSTAR":"-0.00005445500000","MEAN_ELEMENT_THEORY":"SGP4"},{"OBJECT_NAME":"STARLINK-5411","RCS_SIZE":"LARGE","SITE":"AFETR","COUNTRY_CODE":"US","APOAPSIS":"560.007","EPOCH":"2023-04-20T04:58:11.578944","ARG_OF_PERICENTER":"262.7713","RA_OF_ASC_NODE":"90.0856","REV_AT_EPOCH":"1848","TIME_SYSTEM":"UTC","MEAN_MOTION":"15.02537877","OBJECT_TYPE":"PAYLOAD","OBJECT_ID":"2022-177AX","FILE":"3890827","GP_ID":"230431919","MEAN_MOTION_DDOT":"0.0000000000000","TLE_LINE1":"1 54865U 22177AX  23110.20707846  .00001553  00000-0  13003-3 0  9992","EPHEMERIS_TYPE":"0","MEAN_MOTION_DOT":"0.00001553","DECAY_DATE":null,"MEAN_ELEMENT_THEORY":"SGP4","BSTAR":"0.00013003000000","ELEMENT_SET_NO":"999","INCLINATION":"43.0021","MEAN_ANOMALY":"97.2977","NORAD_CAT_ID":"54865","CLASSIFICATION_TYPE":"U","ECCENTRICITY":"0.00013420","PERIAPSIS":"558.145","REF_FRAME":"TEME","TLE_LINE2":"2 54865  43.0021  90.0856 0001342 262.7713  97.2977 15.02537877 18483","CENTER_NAME":"EARTH","SEMIMAJOR_AXIS":"6937.211","PERIOD":"95.838","LAUNCH_DATE":"2022-12-28"},{"OBJECT_TYPE":"PAYLOAD","OBJECT_ID":"2022-177AY","MEAN_MOTION":"15.02536221","GP_ID":"230463692","FILE":"3891109","TLE_LINE1":"1 54866U 22177AY  23110.64800465 -.00001082  00000-0 -65060-4 0  9992","MEAN_MOTION_DDOT":"0.0000000000000","RA_OF_ASC_NODE":"87.3753","ARG_OF_PERICENTER":"278.4779","REV_AT_EPOCH":"1855","TIME_SYSTEM":"UTC","COUNTRY_CODE":"US","EPOCH":"2023-04-20T15:33:07.601760","APOAPSIS":"559.995","OBJECT_NAME":"STARLINK-5398","RCS_SIZE":"LARGE","SITE":"AFETR","CENTER_NAME":"EARTH","PERIOD":"95.838","SEMIMAJOR_AXIS":"6937.216","LAUNCH_DATE":"2022-12-28","ECCENTRICITY":"0.00013180","TLE_LINE2":"2 54866  43.0030  87.3753 0001318 278.4779  81.5914 15.02536221 18555","PERIAPSIS":"558.167","REF_FRAME":"TEME","INCLINATION":"43.0030","ELEMENT_SET_NO":"999","MEAN_ANOMALY":"81.5914","NORAD_CAT_ID":"54866","CLASSIFICATION_TYPE":"U","EPHEMERIS_TYPE":"0","DECAY_DATE":null,"MEAN_MOTION_DOT":"-0.00001082","MEAN_ELEMENT_THEORY":"SGP4","BSTAR":"-0.00006506000000"},{"REF_FRAME":"TEME","PERIAPSIS":"558.391","TLE_LINE2":"2 54867  43.0029  87.4594 0000982 291.9003  68.1735 15.02538982 18552","ECCENTRICITY":"0.00009820","LAUNCH_DATE":"2022-12-28","CENTER_NAME":"EARTH","SEMIMAJOR_AXIS":"6937.207","PERIOD":"95.838","MEAN_MOTION_DOT":"-0.00002384","DECAY_DATE":null,"MEAN_ELEMENT_THEORY":"SGP4","BSTAR":"-0.00016145000000","EPHEMERIS_TYPE":"0","NORAD_CAT_ID":"54867","CLASSIFICATION_TYPE":"U","ELEMENT_SET_NO":"999","INCLINATION":"43.0029","MEAN_ANOMALY":"68.1735","TIME_SYSTEM":"UTC","ARG_OF_PERICENTER":"291.9003","RA_OF_ASC_NODE":"87.4594","REV_AT_EPOCH":"1855","MEAN_MOTION_DDOT":"0.0000000000000","TLE_LINE1":"1 54867U 22177AZ  23110.65910889 -.00002384  00000-0 -16145-3 0  9991","MEAN_MOTION":"15.02538982","OBJECT_ID":"2022-177AZ","OBJECT_TYPE":"PAYLOAD","FILE":"3891109","GP_ID":"230463942","RCS_SIZE":"LARGE","SITE":"AFETR","OBJECT_NAME":"STARLINK-5396","APOAPSIS":"559.754","EPOCH":"2023-04-20T15:49:07.008096","COUNTRY_CODE":"US"},{"RA_OF_ASC_NODE":"87.3300","ARG_OF_PERICENTER":"260.7189","REV_AT_EPOCH":"1855","TIME_SYSTEM":"UTC","OBJECT_ID":"2022-177BA","OBJECT_TYPE":"PAYLOAD","MEAN_MOTION":"15.02535642","GP_ID":"230464194","FILE":"3891109","TLE_LINE1":"1 54868U 22177BA  23110.64245512 -.00000646  00000-0 -32740-4 0  9994","MEAN_MOTION_DDOT":"0.0000000000000","OBJECT_NAME":"STARLINK-5379","RCS_SIZE":"LARGE","SITE":"AFETR","COUNTRY_CODE":"US","EPOCH":"2023-04-20T15:25:08.122368","APOAPSIS":"560.013","ECCENTRICITY":"0.00013410","TLE_LINE2":"2 54868  43.0044  87.3300 0001341 260.7189  99.3501 15.02535642 18550","REF_FRAME":"TEME","PERIAPSIS":"558.152","CENTER_NAME":"EARTH","PERIOD":"95.838","SEMIMAJOR_AXIS":"6937.218","LAUNCH_DATE":"2022-12-28","EPHEMERIS_TYPE":"0","DECAY_DATE":null,"MEAN_MOTION_DOT":"-0.00000646","MEAN_ELEMENT_THEORY":"SGP4","BSTAR":"-0.00003274000000","INCLINATION":"43.0044","ELEMENT_SET_NO":"999","MEAN_ANOMALY":"99.3501","NORAD_CAT_ID":"54868","CLASSIFICATION_TYPE":"U"},{"RCS_SIZE":"LARGE","SITE":"AFETR","OBJECT_NAME":"STARLINK-5402","EPOCH":"2023-04-20T15:36:19.786464","APOAPSIS":"559.968","COUNTRY_CODE":"US","TIME_SYSTEM":"UTC","ARG_OF_PERICENTER":"266.2601","RA_OF_ASC_NODE":"87.3920","REV_AT_EPOCH":"1855","MEAN_MOTION_DDOT":"0.0000000000000","TLE_LINE1":"1 54869U 22177BB  23110.65022901 -.00000212  00000-0 -63607-6 0  9998","MEAN_MOTION":"15.02530342","OBJECT_TYPE":"PAYLOAD","OBJECT_ID":"2022-177BB","FILE":"3891109","GP_ID":"230464445","MEAN_MOTION_DOT":"-0.00000212","DECAY_DATE":null,"BSTAR":"-0.00000063607000","MEAN_ELEMENT_THEORY":"SGP4","EPHEMERIS_TYPE":"0","NORAD_CAT_ID":"54869","CLASSIFICATION_TYPE":"U","ELEMENT_SET_NO":"999","INCLINATION":"43.0027","MEAN_ANOMALY":"93.8098","REF_FRAME":"TEME","PERIAPSIS":"558.230","TLE_LINE2":"2 54869  43.0027  87.3920 0001253 266.2601  93.8098 15.02530342 18554","ECCENTRICITY":"0.00012530","LAUNCH_DATE":"2022-12-28","CENTER_NAME":"EARTH","SEMIMAJOR_AXIS":"6937.234","PERIOD":"95.838"},{"RCS_SIZE":"LARGE","SITE":"AFETR","OBJECT_NAME":"STARLINK-5401","APOAPSIS":"559.807","EPOCH":"2023-04-20T15:29:55.914720","COUNTRY_CODE":"US","TIME_SYSTEM":"UTC","ARG_OF_PERICENTER":"269.5452","RA_OF_ASC_NODE":"87.3558","REV_AT_EPOCH":"1855","MEAN_MOTION_DDOT":"0.0000000000000","TLE_LINE1":"1 54870U 22177BC  23110.64578605  .00000136  00000-0  25112-4 0  9996","MEAN_MOTION":"15.02531308","OBJECT_ID":"2022-177BC","OBJECT_TYPE":"PAYLOAD","FILE":"3891109","GP_ID":"230463193","MEAN_MOTION_DOT":"0.00000136","DECAY_DATE":null,"BSTAR":"0.00002511200000","MEAN_ELEMENT_THEORY":"SGP4","EPHEMERIS_TYPE":"0","NORAD_CAT_ID":"54870","CLASSIFICATION_TYPE":"U","ELEMENT_SET_NO":"999","INCLINATION":"43.0032","MEAN_ANOMALY":"90.5273","PERIAPSIS":"558.385","REF_FRAME":"TEME","TLE_LINE2":"2 54870  43.0032  87.3558 0001025 269.5452  90.5273 15.02531308 18558","ECCENTRICITY":"0.00010250","LAUNCH_DATE":"2022-12-28","CENTER_NAME":"EARTH","SEMIMAJOR_AXIS":"6937.231","PERIOD":"95.838"},{"TLE_LINE2":"2 54871  43.0012  87.4157 0001818 251.7556 108.3089 15.02541802 18554","REF_FRAME":"TEME","PERIAPSIS":"557.802","ECCENTRICITY":"0.00018180","LAUNCH_DATE":"2022-12-28","CENTER_NAME":"EARTH","PERIOD":"95.838","SEMIMAJOR_AXIS":"6937.199","DECAY_DATE":null,"MEAN_MOTION_DOT":"-0.00001101","MEAN_ELEMENT_THEORY":"SGP4","BSTAR":"-0.00006642000000","EPHEMERIS_TYPE":"0","NORAD_CAT_ID":"54871","CLASSIFICATION_TYPE":"U","INCLINATION":"43.0012","ELEMENT_SET_NO":"999","MEAN_ANOMALY":"108.3089","TIME_SYSTEM":"UTC","RA_OF_ASC_NODE":"87.4157","ARG_OF_PERICENTER":"251.7556","REV_AT_EPOCH":"1855","TLE_LINE1":"1 54871U 22177BD  23110.65355339 -.00001101  00000-0 -66420-4 0  9997","MEAN_MOTION_DDOT":"0.0000000000000","OBJECT_TYPE":"PAYLOAD","OBJECT_ID":"2022-177BD","MEAN_MOTION":"15.02541802","GP_ID":"230463443","FILE":"3891109","RCS_SIZE":"LARGE","SITE":"AFETR","OBJECT_NAME":"STARLINK-5397","EPOCH":"2023-04-20T15:41:07.012896","APOAPSIS":"560.325","COUNTRY_CODE":"US"},{"OBJECT_NAME":"STARLINK-5390","RCS_SIZE":"LARGE","SITE":"AFETR","COUNTRY_CODE":"US","EPOCH":"2023-04-20T15:18:44.930592","APOAPSIS":"559.840","RA_OF_ASC_NODE":"87.3245","ARG_OF_PERICENTER":"273.3240","REV_AT_EPOCH":"1855","TIME_SYSTEM":"UTC","OBJECT_TYPE":"PAYLOAD","OBJECT_ID":"2022-177BE","MEAN_MOTION":"15.02536488","GP_ID":"230464694","FILE":"3891109","TLE_LINE1":"1 54872U 22177BE  23110.63802003  .00001494  00000-0  12565-3 0  9994","MEAN_MOTION_DDOT":"0.0000000000000","EPHEMERIS_TYPE":"0","DECAY_DATE":null,"MEAN_MOTION_DOT":"0.00001494","MEAN_ELEMENT_THEORY":"SGP4","BSTAR":"0.00012565000000","INCLINATION":"43.0024","ELEMENT_SET_NO":"999","MEAN_ANOMALY":"86.7477","NORAD_CAT_ID":"54872","CLASSIFICATION_TYPE":"U","ECCENTRICITY":"0.00010950","TLE_LINE2":"2 54872  43.0024  87.3245 0001095 273.3240  86.7477 15.02536488 18556","PERIAPSIS":"558.320","REF_FRAME":"TEME","CENTER_NAME":"EARTH","PERIOD":"95.838","SEMIMAJOR_AXIS":"6937.215","LAUNCH_DATE":"2022-12-28"},{"MEAN_ANOMALY":"85.7555","INCLINATION":"43.0035","ELEMENT_SET_NO":"999","CLASSIFICATION_TYPE":"U","NORAD_CAT_ID":"54873","EPHEMERIS_TYPE":"0","BSTAR":"-0.00000938570000","MEAN_ELEMENT_THEORY":"SGP4","DECAY_DATE":null,"MEAN_MOTION_DOT":"-0.00000330","PERIOD":"95.838","SEMIMAJOR_AXIS":"6937.226","CENTER_NAME":"EARTH","LAUNCH_DATE":"2022-12-28","ECCENTRICITY":"0.00012140","TLE_LINE2":"2 54873  43.0035  89.1220 0001214 274.3148  85.7555 15.02532857 18500","REF_FRAME":"TEME","PERIAPSIS":"558.249","COUNTRY_CODE":"US","EPOCH":"2023-04-20T07:23:18.011040","APOAPSIS":"559.933","OBJECT_NAME":"STARLINK-5091","SITE":"AFETR","RCS_SIZE":"LARGE","GP_ID":"230431920","FILE":"3890827","OBJECT_ID":"2022-177BF","OBJECT_TYPE":"PAYLOAD","MEAN_MOTION":"15.02532857","TLE_LINE1":"1 54873U 22177BF  23110.30784735 -.00000330  00000-0 -93857-5 0  9995","MEAN_MOTION_DDOT":"0.0000000000000","REV_AT_EPOCH":"1850","RA_OF_ASC_NODE":"89.1220","ARG_OF_PERICENTER":"274.3148","TIME_SYSTEM":"UTC"}];
